PROBA-1                 
1 26958U 01049B   26189.97387645  .00002142  00000+0  14042-3 0  9991
2 26958  97.9603 199.2672 0055949  50.2030 310.4104 15.07595121346905
CUTE-1 (CO-55)          
1 27844U 03031E   26189.95445865  .00000197  00000+0  10410-3 0  9999
2 27844  98.6739 198.2397 0010684 118.8005 241.4249 14.24348882194778
CUBESAT XI-IV (CO-57)   
1 27848U 03031J   26189.46187375  .00000184  00000+0  99678-4 0  9998
2 27848  98.6772 197.4488 0010258 137.0463 223.1519 14.23632050194408
APRIZESAT 4             
1 35684U 09041D   26188.75612091  .00000543  00000+0  71454-4 0  9992
2 35684  98.1405 264.4862 0041930 254.3409 105.3176 14.83907056914416
APRIZESAT 3             
1 35686U 09041F   26189.36472022  .00001101  00000+0  99795-4 0  9999
2 35686  98.2085 343.6064 0061311 358.3556   1.7453 14.96295907919545
PROBA-2                 
1 36037U 09059B   26189.97350116  .00000130  00000+0  40703-4 0  9991
2 36037  98.2457  13.0249 0012573 208.5500 151.5010 14.54871814884694
APRIZESAT 5             
1 37792U 11044E   26189.76089673  .00000678  00000+0  92979-4 0  9990
2 37792  98.2450 123.4135 0050828 293.9839  65.6055 14.81120449801980
APRIZESAT 6             
1 37793U 11044F   26189.50872104  .00000605  00000+0  92504-4 0  9996
2 37793  98.2346 100.4423 0043600  19.5222 153.7283 14.76950087800296
PROBA-V                 
1 39159U 13021A   26189.90738591  .00000065  00000+0  46709-4 0  9992
2 39159  98.3600 167.4432 0005393  74.2833 285.8941 14.23602599684207
APRIZESAT 7             
1 39416U 13066A   26189.82222917  .00001031  00000+0  10706-3 0  9999
2 39416  97.7718 142.7327 0036793 137.7801 222.6261 14.91610354684457
APRIZESAT 8             
1 39425U 13066K   26189.79936297  .00000576  00000+0  68275-4 0  9996
2 39425  97.8227 136.9671 0044965 213.2123 146.6270 14.87689840682888
BUGSAT-1 (TITA)         
1 40014U 14033E   26189.95399501  .00002537  00000+0  13533-3 0  9991
2 40014  98.0420 283.7797 0029059 106.1204 254.3230 15.15832670659137
SAUDISAT 4              
1 40016U 14033G   26189.89533194  .00000384  00000+0  57409-4 0  9993
2 40016  97.7610 335.2824 0044810   4.6531 355.5088 14.79571247649286
APRIZESAT 9             
1 40018U 14033J   26189.92716262  .00000508  00000+0  81836-4 0  9997
2 40018  97.9086 322.5975 0067217 129.7017 231.0144 14.74246937646768
APRIZESAT 10            
1 40019U 14033K   26189.89536548  .00000411  00000+0  72369-4 0  9995
2 40019  97.9675 316.3737 0078228 203.5380 156.2240 14.70905829645445
TECHDEMOSAT-1 (TDS-1)   
1 40076U 14037H   26189.91036881  .00004459  00000+0  25251-3 0  9993
2 40076  98.3825 184.2818 0006275 178.0855 182.0399 15.13621871651515
TECHNOSAT               
1 42829U 17042E   26189.92370897  .00002532  00000+0  18167-3 0  9997
2 42829  97.4301 346.7580 0017966  23.6100 336.5947 15.05083967489973
FLYING LAPTOP           
1 42831U 17042G   26189.98155959  .00002458  00000+0  19485-3 0  9997
2 42831  97.4785 344.6903 0019906  52.1036 308.1985 15.01286219489720
HAWK-A                  
1 43765U 18099H   26189.93901917  .00004252  00000+0  17107-3 0  9998
2 43765  97.3904 241.8930 0034071 206.1617 153.7901 15.24910778416410
HAWK-B                  
1 43794U 18099AN  26189.65812226  .00003703  00000+0  15822-3 0  9995
2 43794  97.3950 240.9855 0030798 225.5796 134.2919 15.23065911416304
HAWK-C                  
1 43799U 18099AT  26189.73507879  .00005393  00000+0  19321-3 0  9999
2 43799  97.3881 242.7106 0039672 206.8217 153.0972 15.28422450417209
SALSAT                  
1 46495U 20068K   26189.92478988  .00004831  00000+0  16857-3 0  9990
2 46495  97.8859 194.3174 0008548 216.5599 143.5058 15.30112926318689
HAWK-2C                 
1 47502U 21006CT  26189.66755212  .00004684  00000+0  14042-3 0  9992
2 47502  97.2272 233.5505 0008518 119.6231 240.5862 15.34933789302797
HAWK-2A                 
1 47505U 21006CW  26189.60464882  .00004854  00000+0  14539-3 0  9999
2 47505  97.2311 234.1791 0007994 122.8132 237.3883 15.34947929302788
HAWK-2B                 
1 47508U 21006CZ  26189.66390563  .00005350  00000+0  15934-3 0  9994
2 47508  97.2183 232.5348 0008586 121.2729 238.9357 15.35073286302792
HAWK-3B                 
1 48931U 21059BE  26189.54222878  .00038704  00000+0  30419-3 0  9997
2 48931  97.6652  28.2983 0003906 224.4609 135.6340 15.71414468281205
HAWK-3C                 
1 48948U 21059BX  26189.54192624  .00038991  00000+0  30651-3 0  9996
2 48948  97.6771  34.0207 0004226 223.2923 136.8007 15.71407356281202
HAWK-3A                 
1 48957U 21059CG  26189.54181301  .00041263  00000+0  32419-3 0  9996
2 48957  97.6713  31.2077 0004069 227.6759 132.4159 15.71409877281202
HAWK-5C                 
1 52754U 22057Y   26189.38867536  .00012425  00000+0  20705-3 0  9991
2 52754  97.6616 350.4379 0003473  12.0616 348.0718 15.52151684229635
HAWK-5B                 
1 52756U 22057AA  26189.90422792  .00012939  00000+0  21538-3 0  9997
2 52756  97.6630 349.3394 0004055 357.5787   2.5444 15.52169831229710
